ONEWEB-0033             
1 45142U 20008M   24223.89983006 -.00000091  00000+0 -29612-3 0  9996
2 45142  87.8977 170.6343 0001874  84.4844 275.6497 13.10377254219779
ONEWEB-0035             
1 45143U 20008N   24223.93137992  .00000632  00000+0  17739-2 0  9992
2 45143  87.8976 170.6120 0001965  84.7012 275.4339 13.10370326219500
ONEWEB-0036             
1 45144U 20008P   24223.92143199  .00000752  00000+0  21178-2 0  9993
2 45144  87.8977 170.5690 0002367  78.6327 281.5066 13.10376759219939
ONEWEB-0038             
1 45145U 20008Q   24223.85413193 -.00000251  00000+0 -74362-3 0  9990
2 45145  87.9001 155.5060 0001903  54.5089 305.6216 13.11416520221813
ONEWEB-0039             
1 45146U 20008R   24223.90315237  .00000133  00000+0  34474-3 0  9994
2 45146  87.8980 170.5911 0002396  71.7139 288.4249 13.10377102219727
ONEWEB-0040             
1 45147U 20008S   24223.89650892 -.00000274  00000+0 -82126-3 0  9997
2 45147  87.8986 170.5976 0002021  76.8542 283.2811 13.10376454219428
ONEWEB-0043             
1 45149U 20008U   24223.89817142 -.00000103  00000+0 -33124-3 0  9997
2 45149  87.8981 170.6011 0002437  71.4690 288.6702 13.10376769219744
ONEWEB-0044             
1 45150U 20008V   24223.92639967  .00000651  00000+0  18297-2 0  9999
2 45150  87.8976 170.5901 0002291  73.6550 286.4829 13.10378494220042
